NORAD_CAT_ID,OBJECT_NAME,OBJECT_TYPE,EPOCH,MEAN_MOTION,ECCENTRICITY,INCLINATION,RA_OF_ASC_NODE,ARG_OF_PERICENTER,MEAN_ANOMALY,BSTAR,MEAN_MOTION_DOT,MEAN_MOTION_DDOT,TLE_LINE0,TLE_LINE1,TLE_LINE2,SEMIMAJOR_AXIS,PERIOD,APOGEE,PERIGEE,DECAYED
55648.0,STARLINK-5501,PAYLOAD,2024-07-13 22:24:08,14.98328999,0.0003457,69.9994,266.7775,264.879,95.1975,4.9178e-05,4.94e-06,0.0,0 STARLINK-5501,1 55648U 23021W   24195.93342854  .00000494  00000-0  49178-4 0  9995,2 55648  69.9994 266.7775 0003457 264.8790  95.1975 14.98328999 78352,6950.196,96.107,574.464,569.658,0.0
55648.0,STARLINK-5501,PAYLOAD,2024-07-14 12:49:20,14.9833165,0.0003437,69.9994,265.2629,268.7086,91.3679,9.5498e-06,2.1e-07,0.0,0 STARLINK-5501,1 55648U 23021W   24196.53426813  .00000021  00000-0  95498-5 0  9993,2 55648  69.9994 265.2629 0003437 268.7086  91.3679 14.98331650 78147,6950.188,96.107,574.442,569.664,0.0
55648.0,STARLINK-5501,PAYLOAD,2024-07-14 14:25:28,14.98332641,0.0003434,69.9994,265.0946,268.7811,91.2954,2.0645e-05,1.53e-06,0.0,0 STARLINK-5501,1 55648U 23021W   24196.60102715  .00000153  00000-0  20645-4 0  9990,2 55648  69.9994 265.0946 0003434 268.7811  91.2954 14.98332641 78450,6950.185,96.107,574.436,569.663,0.0
55648.0,STARLINK-5501,PAYLOAD,2024-07-15 12:51:21,14.9833242,0.0003375,69.9996,262.7392,267.7769,92.3003,5.4194e-05,5.54e-06,0.0,0 STARLINK-5501,1 55648U 23021W   24197.53566609  .00000554  00000-0  54194-4 0  9990,2 55648  69.9996 262.7392 0003375 267.7769  92.3003 14.98332420 78290,6950.185,96.107,574.396,569.705,0.0
55648.0,STARLINK-5501,PAYLOAD,2024-07-15 14:27:29,14.98332868,0.0003373,69.9996,262.5708,267.7757,92.3015,5.8342e-05,6.03e-06,0.0,0 STARLINK-5501,1 55648U 23021W   24197.60242562  .00000603  00000-0  58342-4 0  9991,2 55648  69.9996 262.5708 0003373 267.7757  92.3015 14.98332868 78608,6950.184,96.107,574.393,569.705,0.0
55648.0,STARLINK-5501,PAYLOAD,2024-07-16 04:52:42,14.98325031,0.0003442,69.9992,261.0548,269.6461,90.4304,2.8677e-05,2.49e-06,0.0,0 STARLINK-5501,1 55648U 23021W   24198.20327105  .00000249  00000-0  28677-4 0  9999,2 55648  69.9992 261.0548 0003442 269.6461  90.4304 14.98325031 78390,6950.208,96.107,574.466,569.681,0.0
55648.0,STARLINK-5501,PAYLOAD,2024-07-16 12:53:22,14.98332411,0.000346,69.9992,260.2131,270.0113,90.0649,5.5187e-05,5.66e-06,0.0,0 STARLINK-5501,1 55648U 23021W   24198.53706601  .00000566  00000-0  55187-4 0  9995,2 55648  69.9992 260.2131 0003460 270.0113  90.0649 14.98332411 78443,6950.185,96.107,574.455,569.646,0.0
55648.0,STARLINK-5501,PAYLOAD,2024-07-16 14:29:30,14.98333792,0.0003423,69.9994,260.0449,270.1537,89.923,5.6648e-05,5.83e-06,0.0,0 STARLINK-5501,1 55648U 23021W   24198.60382504  .00000583  00000-0  56648-4 0  9997,2 55648  69.9994 260.0449 0003423 270.1537  89.9230 14.98333792 78755,6950.181,96.107,574.425,569.667,0.0
55648.0,STARLINK-5501,PAYLOAD,2024-07-17 04:54:45,14.98306741,0.0003647,69.9996,258.53,270.2729,89.8013,-0.00022899,-2.823e-05,0.0,0 STARLINK-5501,1 55648U 23021W   24199.20469474 -.00002823  00000-0 -22899-3 0  9997,2 55648  69.9996 258.5300 0003647 270.2729  89.8013 14.98306741 78546,6950.265,96.108,574.665,569.595,0.0
55648.0,STARLINK-5501,PAYLOAD,2024-07-17 12:55:25,14.98315384,0.0003091,70.0002,257.6902,264.5854,95.4952,-0.00010134,-1.301e-05,0.0,0 STARLINK-5501,1 55648U 23021W   24199.53849061 -.00001301  00000-0 -10134-3 0  9996,2 55648  70.0002 257.6902 0003091 264.5854  95.4952 14.98315384 78596,6950.238,96.108,574.251,569.955,0.0
55648.0,STARLINK-5501,PAYLOAD,2024-07-18 04:56:45,14.98331393,0.0003369,69.9994,256.0074,260.8432,99.2346,8.4611e-05,9.17e-06,0.0,0 STARLINK-5501,1 55648U 23021W   24200.20607825  .00000917  00000-0  84611-4 0  9995,2 55648  69.9994 256.0074 0003369 260.8432  99.2346 14.98331393 78693,6950.189,96.107,574.395,569.712,0.0
55648.0,STARLINK-5501,PAYLOAD,2024-07-18 12:57:25,14.98337182,0.000344,69.999,255.1639,267.5929,92.4836,0.00014967,1.694e-05,0.0,0 STARLINK-5501,1 55648U 23021W   24200.53987425  .00001694  00000-0  14967-3 0  9997,2 55648  69.9990 255.1639 0003440 267.5929  92.4836 14.98337182 79042,6950.171,96.107,574.427,569.645,0.0
55648.0,STARLINK-5501,PAYLOAD,2024-07-19 04:58:45,14.98334646,0.0003639,69.9985,253.4805,269.7836,90.2906,0.00029302,3.405e-05,0.0,0 STARLINK-5501,1 55648U 23021W   24201.20747425  .00003405  00000-0  29302-3 0  9997,2 55648  69.9985 253.4805 0003639 269.7836  90.2906 14.98334646 78846,6950.179,96.107,574.573,569.514,0.0
55648.0,STARLINK-5501,PAYLOAD,2024-07-19 12:59:25,14.98340847,0.0003605,69.9987,252.639,269.9276,90.1469,0.00036429,4.258e-05,0.0,0 STARLINK-5501,1 55648U 23021W   24201.54126963  .00004258  00000-0  36429-3 0  9997,2 55648  69.9987 252.6390 0003605 269.9276  90.1469 14.98340847 79193,6950.159,96.106,574.53,569.519,0.0
55648.0,STARLINK-5501,PAYLOAD,2024-07-19 21:00:06,14.98341928,0.0003654,69.9985,251.7968,270.6639,89.4101,0.00021984,2.532e-05,0.0,0 STARLINK-5501,1 55648U 23021W   24201.87506984  .00002532  00000-0  21984-3 0  9991,2 55648  69.9985 251.7968 0003654 270.6639  89.4101 14.98341928 79249,6950.156,96.106,574.561,569.481,0.0
55648.0,STARLINK-5501,PAYLOAD,2024-07-20 05:00:46,14.98338064,0.0003386,69.9991,250.955,264.8872,95.1901,6.1183e-05,6.37e-06,0.0,0 STARLINK-5501,1 55648U 23021W   24202.20887353  .00000637  00000-0  61183-4 0  9991,2 55648  69.9991 250.9550 0003386 264.8872  95.1901 14.98338064 78990,6950.168,96.106,574.386,569.68,0.0
55648.0,STARLINK-5501,PAYLOAD,2024-07-20 13:01:26,14.98340953,0.0003442,69.9989,250.1139,268.4745,91.6019,3.0684e-05,2.73e-06,0.0,0 STARLINK-5501,1 55648U 23021W   24202.54266992  .00000273  00000-0  30684-4 0  9996,2 55648  69.9989 250.1139 0003442 268.4745  91.6019 14.98340953 79345,6950.159,96.106,574.416,569.632,0.0
55648.0,STARLINK-5501,PAYLOAD,2024-07-20 21:02:07,14.9833335,0.0003342,69.9993,249.2702,259.1624,100.9159,3.8683e-05,3.69e-06,0.0,0 STARLINK-5501,1 55648U 23021W   24202.87647278  .00000369  00000-0  38683-4 0  9995,2 55648  69.9993 249.2702 0003342 259.1624 100.9159 14.98333350 79394,6950.183,96.107,574.37,569.725,0.0
55648.0,STARLINK-5501,PAYLOAD,2024-07-21 05:02:47,14.98337214,0.0003416,69.9991,248.4287,267.7959,92.2809,-6.7896e-05,-9.03e-06,0.0,0 STARLINK-5501,1 55648U 23021W   24203.21027018 -.00000903  00000-0 -67896-4 0  9992,2 55648  69.9991 248.4287 0003416 267.7959  92.2809 14.98337214 79140,6950.171,96.107,574.41,569.661,0.0
55648.0,STARLINK-5501,PAYLOAD,2024-07-21 13:03:27,14.98337782,0.0003436,69.9987,247.5874,268.7737,91.3028,-6.4997e-05,-8.69e-06,0.0,0 STARLINK-5501,1 55648U 23021W   24203.54406797 -.00000869  00000-0 -64997-4 0  9993,2 55648  69.9987 247.5874 0003436 268.7737  91.3028 14.98337782 79495,6950.169,96.106,574.422,569.646,0.0
55648.0,STARLINK-5501,PAYLOAD,2024-07-22 05:04:48,14.98331659,0.0003384,69.9987,245.904,268.8863,91.1909,6.1255e-05,6.38e-06,0.0,0 STARLINK-5501,1 55648U 23021W   24204.21166682  .00000638  00000-0  61255-4 0  9990,2 55648  69.9987 245.9040 0003384 268.8863  91.1909 14.98331659 79296,6950.188,96.107,574.405,569.701,0.0
55648.0,STARLINK-5501,PAYLOAD,2024-07-22 09:53:12,14.98333428,0.0003417,69.9987,245.399,269.2827,90.794,5.6397e-05,5.8e-06,0.0,0 STARLINK-5501,1 55648U 23021W   24204.41194562  .00000580  00000-0  56397-4 0  9997,2 55648  69.9987 245.3990 0003417 269.2827  90.7940 14.98333428 79629,6950.182,96.107,574.422,569.672,0.0
55648.0,STARLINK-5501,PAYLOAD,2024-07-23 09:55:12,14.98332391,0.0003402,69.9986,242.8748,269.4686,90.6084,8.582e-05,9.31e-06,0.0,0 STARLINK-5501,1 55648U 23021W   24205.41334466  .00000931  00000-0  85820-4 0  9990,2 55648  69.9986 242.8748 0003402 269.4686  90.6084 14.98332391 79479,6950.185,96.107,574.415,569.686,0.0
55648.0,STARLINK-5501,PAYLOAD,2024-07-24 13:09:30,14.9832855,0.0003418,69.9982,240.0129,267.1379,92.9389,-7.9577e-06,-1.88e-06,0.0,0 STARLINK-5501,1 55648U 23021W   24206.54826877 -.00000188  00000-0 -79577-5 0  9996,2 55648  69.9982 240.0129 0003418 267.1379  92.9389 14.98328550 79643,6950.197,96.107,574.438,569.687,0.0
55648.0,STARLINK-5501,PAYLOAD,2024-07-25 06:46:58,14.98333141,0.0003563,69.9978,238.1611,268.2992,91.7759,4.9712e-05,5e-06,0.0,0 STARLINK-5501,1 55648U 23021W   24207.28262358  .00000500  00000-0  49712-4 0  9999,2 55648  69.9978 238.1611 0003563 268.2992  91.7759 14.98333141 80053,6950.183,96.107,574.525,569.572,0.0
55648.0,STARLINK-5501,PAYLOAD,2024-07-25 09:59:14,14.98334279,0.0003531,69.9978,237.8245,267.8702,92.2052,6.2927e-05,6.58e-06,0.0,0 STARLINK-5501,1 55648U 23021W   24207.41614227  .00000658  00000-0  62927-4 0  9997,2 55648  69.9978 237.8245 0003531 267.8702  92.2052 14.98334279 79773,6950.18,96.107,574.499,569.591,0.0
55648.0,STARLINK-5501,PAYLOAD,2024-07-26 10:01:15,14.98330158,0.0003486,69.9978,235.2993,267.4725,92.6035,8.2074e-05,8.86e-06,0.0,0 STARLINK-5501,1 55648U 23021W   24208.41754316  .00000886  00000-0  82074-4 0  9990,2 55648  69.9978 235.2993 0003486 267.4725  92.6035 14.98330158 79929,6950.192,96.107,574.48,569.635,0.0
55648.0,STARLINK-5501,PAYLOAD,2024-07-26 19:38:04,14.98331054,0.0003493,69.9977,234.2892,267.1136,92.9623,4.7067e-05,4.69e-06,0.0,0 STARLINK-5501,1 55648U 23021W   24208.81810307  .00000469  00000-0  47067-4 0  9997,2 55648  69.9977 234.2892 0003493 267.1136  92.9623 14.98331054 80289,6950.19,96.107,574.482,569.627,0.0
55648.0,STARLINK-5501,PAYLOAD,2024-07-27 06:51:00,14.98333726,0.0003476,69.9977,233.1108,266.7927,93.2834,1.4758e-05,8.3e-07,0.0,0 STARLINK-5501,1 55648U 23021W   24209.28542141  .00000083  00000-0  14758-4 0  9990,2 55648  69.9977 233.1108 0003476 266.7927  93.2834 14.98333726 80355,6950.181,96.107,574.462,569.63,0.0
55648.0,STARLINK-5501,PAYLOAD,2024-07-27 10:03:16,14.9833293,0.0003478,69.9978,232.7742,266.9931,93.083,5.4249e-06,-2.8e-07,0.0,0 STARLINK-5501,1 55648U 23021W   24209.41894199 -.00000028  00000-0  54249-5 0  9998,2 55648  69.9978 232.7742 0003478 266.9931  93.0830 14.98332930 80073,6950.184,96.107,574.466,569.632,0.0
